SatCatId,ObjectName,LaunchYear,OrbitalPeriod,LaunchMass,StatusCode,Inclination,Status,UcsData,OrbitClassEstimated,LaunchSiteCountry,Owner,UseType,Purpose,LaunchVehicleClass,TLE1,TLE2,MeanMotion,Eccentricity,OrbitClass
2866,LES-5,1967,1315.97,-1.0,P,1.99,Active,0,MEO,USA,USA,Unknown,Unknown,Unknown,1 02866U 67066E   25259.22245963 -.00000073  00000+0  00000+0 0  9992,2 02866   1.9914 105.9145 0052878 195.0881 111.1258  1.09425237128031,1.09425237,0.0052878,MEO
2872,SURCAL 159,1967,102.89,-1.0,+,69.97,Active,0,LEO,USA,USA,Unknown,Unknown,Unknown,1 02872U 67053F   25259.35816498  .00000095  00000+0  10192-3 0  9996,2 02872  69.9727 230.4319 0003960 126.6441 233.5031 13.99501254971895,13.99501254,0.000396,LEO
2874,OPS 5712 (P/L 153),1967,103.1,-1.0,+,69.98,Active,0,LEO,USA,USA,Unknown,Unknown,Unknown,1 02874U 67053H   25259.57076845  .00000022  00000+0  53846-4 0  9990,2 02874  69.9766 341.7566 0008285 211.6610 148.3998 13.96766927968571,13.96766927,0.0008285,LEO
2909,SURCAL 150B,1967,93.15,-1.0,+,69.91,Active,0,LEO,USA,USA,Unknown,Unknown,Unknown,1 02909U 67053J   25259.40191662  .00241630  00000+0  48081-2 0  9991,2 02909  69.9128 221.4476 0004852 195.5332 164.5702 15.45873806 39734,15.45873806,0.0004852,LEO
5204,OPS 3811 (DSP 2),1971,1466.96,-1.0,P,0.5,Active,0,GSO,USA,USA,Unknown,Unknown,Unknown,1 05204U 71039A   25259.36410163 -.00000192  00000+0  00000+0 0  9999,2 05204   0.5028 297.0475 0021881 343.5983 178.2323  0.98162014203548,0.98162014,0.0021881,GSO
5398,RIGIDSPHERE 2 (LCS 4),1971,100.19,-1.0,+,87.62,Active,0,LEO,USA,USA,Unknown,Unknown,Unknown,1 05398U 71067E   25259.51354884  .00000716  00000+0  22883-3 0  9996,2 05398  87.6168  54.7580 0062249  61.8118 298.9348 14.37331891834569,14.37331891,0.0062249,LEO
7530,OSCAR 7 (AO-7),1974,114.86,29.0,P,102.0,Active,1,LEO,USA,USA,Civil,Communications,Delta,1 07530U 74089B   25259.52878332 -.00000031  00000+0  94737-4 0  9992,2 07530 101.9985 264.8598 0011931 294.4389 185.3186 12.53691542326221,12.53691542,0.0011931,LEO
7646,STARLETTE,1975,104.17,-1.0,+,49.82,Active,0,LEO,French Guiana,France,Unknown,Unknown,Unknown,1 07646U 75010A   25259.31815283 -.00000143  00000+0 -14939-5 0  9990,2 07646  49.8238 105.6031 0205717 238.3138 119.7550 13.82344997556650,13.82344997,0.0205717,LEO
8820,LAGEOS 1,1976,225.47,-1.0,+,109.84,Active,0,MEO,USA,USA,Unknown,Unknown,Unknown,1 08820U 76039A   25259.51566095  .00000039  00000+0  00000+0 0  9993,2 08820 109.8450  85.6101 0044660   0.8517  12.2977  6.38664843895669,6.38664843,0.004466,MEO
13086,OPS 8701 (DSP 10),1982,1466.57,-1.0,P,9.85,Active,0,GSO,USA,USA,Unknown,Unknown,Unknown,1 13086U 82019A   25259.14055927 -.00000078  00000+0  00000+0 0  9998,2 13086   9.8500 311.1480 0005248 281.9949  97.8414  0.98188227 22979,0.98188227,0.0005248,GSO
14129,PHASE 3B (AO-10),1983,699.47,-1.0,P,26.34,Active,0,MEO,French Guiana,Germany,Unknown,Unknown,Unknown,1 14129U 83058B   25256.06052969  .00000019  00000+0  00000+0 0  9996,2 14129  26.3356 266.5389 6068993  38.4794 352.1757  2.05870262289785,2.05870262,0.6068993,MEO
14781,UOSAT 2 (UO-11),1984,96.67,-1.0,P,97.77,Active,0,LEO,USA,UK,Unknown,Unknown,Unknown,1 14781U 84021B   25259.48624322  .00001361  00000+0  14793-3 0  9997,2 14781  97.7661 223.9685 0008293  21.6838 338.4729 14.89671745216360,14.89671745,0.0008293,LEO
16908,AJISAI (EGS),1986,115.71,-1.0,+,50.01,Active,0,LEO,Japan,Japan,Unknown,Unknown,Unknown,1 16908U 86061A   25259.61706316 -.00000073  00000+0  16866-3 0  9998,2 16908  50.0078 268.6185 0011297 204.0645 257.4010 12.44513344446322,12.44513344,0.0011297,LEO
19548,TDRS 3,1988,1436.15,3180.0,+,12.81,Active,1,GSO,USA,USA,Government,Communications,Space Shuttle STS,1 19548U 88091B   25259.07450480 -.00000310  00000+0  00000+0 0  9997,2 19548  12.8120 342.8082 0036890 340.4146  10.0062  1.00268351122637,1.00268351,0.003689,GSO
19751,COSMOS 1989 (ETALON 1),1989,675.56,-1.0,+,64.79,Active,0,MEO,Kazakhstan,Russia/USSR,Unknown,Unknown,Unknown,1 19751U 89001C   25258.79924966  .00000039  00000+0  00000+0 0  9995,2 19751  64.7858  81.5899 0023415 216.7851 154.0885  2.13156032285524,2.13156032,0.0023415,MEO
20026,COSMOS 2024 (ETALON 2),1989,675.41,-1.0,+,65.1,Active,0,MEO,Kazakhstan,Russia/USSR,Unknown,Unknown,Unknown,1 20026U 89039C   25258.66016510 -.00000050  00000+0  00000+0 0  9990,2 20026  65.1000 319.9860 0020367 214.5850 159.7136  2.13204449282657,2.13204449,0.0020367,MEO
20253,FLTSATCOM 8 (USA 46),1989,1436.04,2310.0,+,12.5,Active,1,GSO,USA,USA,Military,Communications,Atlas,1 20253U 89077A   25259.61191025 -.00000379  00000+0  00000+0 0  9999,2 20253  12.4984 352.7908 0004171 207.1495 141.9136  1.00275481257813,1.00275481,0.0004171,GSO
20442,LUSAT (LO-19),1990,100.42,-1.0,P,98.9,Active,0,LEO,French Guiana,Argentina,Unknown,Unknown,Unknown,1 20442U 90005G   25259.53840168  .00000114  00000+0  57586-4 0  9994,2 20442  98.9010 268.6039 0010563 290.5960  69.4090 14.33989988863176,14.33989988,0.0010563,LEO
20580,HST,1990,94.34,11110.0,+,28.47,Active,1,LEO,USA,USA,Government,Space Science,Space Shuttle STS,1 20580U 90037B   25259.35672833  .00007413  00000+0  26911-3 0  9990,2 20580  28.4678 146.5071 0002485   2.2490 357.8116 15.26335500746628,15.263355,0.0002485,LEO
20776,SKYNET 4C,1990,1436.04,1474.0,+,13.43,Active,1,GSO,French Guiana,UK,Military,Communications,Ariane,1 20776U 90079A   25258.87673060  .00000115  00000+0  00000+0 0  9991,2 20776  13.4286 351.6729 0003140 198.4712 153.9642  1.00275626128135,1.00275626,0.000314,GSO
20929,USA 65 (DSP 15),1990,1463.43,-1.0,P,14.18,Active,0,GSO,USA,USA,Unknown,Unknown,Unknown,1 20929U 90095A   25258.95530765 -.00000218  00000+0  00000+0 0  9997,2 20929  14.1751 345.9372 0003312 120.2243 227.7955  0.98398995 22763,0.98398995,0.0003312,GSO
21639,TDRS 5,1991,1436.18,3180.0,+,14.11,Active,1,GSO,USA,USA,Commercial/Government,Communications,Space Shuttle STS,1 21639U 91054B   25259.48378024  .00000072  00000+0  00000+0 0  9996,2 21639  14.1051 355.7852 0011670 240.1612 126.4517  1.00265753124979,1.00265753,0.001167,GSO
21805,USA 75 (DSP 16),1991,1451.77,-1.0,P,14.15,Active,0,GSO,USA,USA,Unknown,Unknown,Unknown,1 21805U 91080B   25258.01403463 -.00000179  00000+0  00000+0 0  9993,2 21805  14.1535 347.4618 0003788 135.3689 238.9884  0.99189070 22987,0.9918907,0.0003788,GSO
22195,LAGEOS 2,1992,222.46,-1.0,+,52.65,Active,0,MEO,USA,Italy,Unknown,Unknown,Unknown,1 22195U 92070B   25256.97018992 -.00000009  00000+0  00000+0 0  9990,2 22195  52.6510  81.1989 0137755  66.7464 285.5863  6.47293896777537,6.47293896,0.0137755,MEO
22314,TDRS 6,1993,1436.13,3180.0,+,14.18,Active,1,GSO,USA,USA,Commercial/Government,Communications,Space Shuttle STS,1 22314U 93003B   25259.39776939 -.00000307  00000+0  00000+0 0  9992,2 22314  14.1769 359.0705 0011271 189.2127 264.7235  1.00269549119661,1.00269549,0.0011271,GSO
22490,SCD 1,1993,99.59,-1.0,P,24.97,Active,0,LEO,USA,Brazil,Unknown,Unknown,Unknown,1 22490U 93009B   25259.26543784  .00000480  00000+0  80725-4 0  9997,2 22490  24.9688  98.6434 0042204 119.0613  41.3724 14.45910734721428,14.45910734,0.0042204,LEO
22787,UFO 2 (USA 95),1993,1436.05,3200.0,+,11.8,Active,1,GSO,USA,USA,Military,Communications,Atlas,1 22787U 93056A   25258.94710425  .00000113  00000+0  00000+0 0  9996,2 22787  11.8004   5.0152 0003714 225.3139 134.4556  1.00275125115799,1.00275125,0.0003714,GSO
22824,STELLA,1993,100.88,-1.0,+,98.81,Active,0,LEO,French Guiana,France,Unknown,Unknown,Unknown,1 22824U 93061B   25259.62803682 -.00000042  00000+0  14321-5 0  9997,2 22824  98.8149 317.3276 0005627 320.6952 165.1882 14.27459191665747,14.27459191,0.0005627,LEO
22825,EYESAT A (AO-27),1993,100.64,-1.0,P,98.73,Active,0,LEO,French Guiana,USA,Unknown,Unknown,Unknown,1 22825U 93061C   25258.74927844  .00000078  00000+0  46998-4 0  9999,2 22825  98.7273 320.7514 0008443 177.8928 182.2291 14.30828757667751,14.30828757,0.0008443,LEO
22826,ITAMSAT (IO-26),1993,100.61,-1.0,P,98.72,Active,0,LEO,French Guiana,Italy,Unknown,Unknown,Unknown,1 22826U 93061D   25259.43877896  .00000106  00000+0  57156-4 0  9998,2 22826  98.7221 321.3350 0009304 160.7812 199.3723 14.31245343668159,14.31245343,0.0009304,LEO
22988,USA 99 (MILSTAR-1 1),1994,1436.08,4536.0,+,17.21,Active,1,GSO,USA,USA,Military,Communications,Titan,1 22988U 94009A   25259.35179491 -.00000212  00000+0  00000+0 0  9997,2 22988  17.2099  30.6379 0001931 191.3251 170.2631  1.00272804 30213,1.00272804,0.0001931,GSO
23439,RADIO ROSTO (RS-15),1994,127.71,-1.0,P,64.82,Active,0,LEO,Kazakhstan,Russia/USSR,Unknown,Unknown,Unknown,1 23439U 94085A   25259.59866741 -.00000062  00000+0 -55643-3 0  9991,2 23439  64.8191  25.6726 0147389  55.3289 306.1425 11.27581591265053,11.27581591,0.0147389,LEO
23467,UFO 4 (USA 108),1995,1436.08,3200.0,+,9.68,Active,1,GSO,USA,USA,Military,Communications,Atlas,1 23467U 95003A   25259.57197559 -.00000036  00000+0  00000+0 0  9998,2 23467   9.6802  14.0961 0004022 164.2365 195.6389  1.00272857112204,1.00272857,0.0004022,GSO
23613,TDRS 7,1995,1436.01,3180.0,+,13.49,Active,1,GSO,USA,USA,Government,Communications,Space Shuttle STS,1 23613U 95035B   25259.59862950 -.00000251  00000+0  00000+0 0  9991,2 23613  13.4914 350.0591 0008038 105.5839 204.6148  1.00278018110501,1.00278018,0.0008038,GSO
23712,USA 115 (MILSTAR-1 2),1995,1436.06,-1.0,+,13.97,Active,0,GSO,USA,USA,Unknown,Unknown,Unknown,1 23712U 95060A   25258.39253723 -.00000032  00000+0  00000+0 0  9995,2 23712  13.9724   5.7583 0001844 193.8027 176.3790  1.00274427 30135,1.00274427,0.0001844,GSO
23802,POLAR,1996,1109.0,-1.0,P,79.55,Active,0,MEO,USA,USA,Unknown,Unknown,Unknown,1 23802U 96013A   25258.84154403  .00000222  00000+0  00000+0 0  9999,2 23802  79.5487 230.0952 6202349 218.3469  75.0712  1.29846619141292,1.29846619,0.6202349,MEO
